[{"OBJECT_NAME":"OBJECT K","OBJECT_ID":"2024-205K","EPOCH":"2026-03-09T22:22:01.331040","MEAN_MOTION":15.27932792,"ECCENTRICITY":0.00106729,"INCLINATION":97.417,"RA_OF_ASC_NODE":146.2172,"ARG_OF_PERICENTER":37.4736,"MEAN_ANOMALY":322.7246,"EPHEMERIS_TYPE":0,"CLASSIFICATION_TYPE":"U","NORAD_CAT_ID":61903,"ELEMENT_SET_NO":999,"REV_AT_EPOCH":7347,"BSTAR":0.00067315144,"MEAN_MOTION_DOT":0.00018331,"MEAN_MOTION_DDOT":0},{"OBJECT_NAME":"STARLINK-34071","OBJECT_ID":"2025-095W","EPOCH":"2026-03-09T14:43:10.405632","MEAN_MOTION":15.2763434,"ECCENTRICITY":0.00012893,"INCLINATION":43.0008,"RA_OF_ASC_NODE":176.8681,"ARG_OF_PERICENTER":259.3594,"MEAN_ANOMALY":100.7112,"EPHEMERIS_TYPE":0,"CLASSIFICATION_TYPE":"U","NORAD_CAT_ID":63910,"ELEMENT_SET_NO":999,"REV_AT_EPOCH":4776,"BSTAR":0.0012518852,"MEAN_MOTION_DOT":0.00034405,"MEAN_MOTION_DDOT":0}]
